ASTROCAST-0403          
1 55111U 23001DG  26068.82333059  .00013959  00000+0  51317-3 0  9990
2 55111  97.5604 161.3228 0004771 338.0704  22.0330 15.28004949129377
STARLINK-30567          
1 58067U 23158S   26068.21393728  .00001073  00000+0  48509-4 0  9992
2 58067  43.0022  30.0257 0000917 296.0738  64.0019 15.27587017133491
